KUIPER-00614            
1 69773U 26151L   26204.04137224  .00029081  00000+0  76716-3 0  9993
2 69773  51.8797 142.3282 0003222 153.6537 206.4614 15.38242293  3221
KUIPER-00615            
1 69774U 26151M   26204.58334491  .00005932  00000+0  18679-3 0  9991
2 69774  51.8780 139.8993 0006533 179.4455 215.6611 15.34336301  2146
KUIPER-00616            
1 69775U 26151N   26204.10390814  .00034208  00000+0  89246-3 0  9997
2 69775  51.8781 142.0022 0003438 159.7088 200.4037 15.38499856  3235
KUIPER-00617            
1 69776U 26151P   26204.24099128  .00021514  00000+0  57688-3 0  9998
2 69776  51.8793 141.4165 0004094 169.5227 190.5846 15.37911621  3250
KUIPER-00619            
1 69777U 26151Q   26204.23077014  .00027860  00000+0  72437-3 0  9997
2 69777  51.8817 141.3479 0001351  78.4198 281.6941 15.38714521  3252
KUIPER-00621            
1 69778U 26151R   26204.23402911  .00028900  00000+0  75771-3 0  9996
2 69778  51.8794 141.3750 0001759 129.0977 231.0167 15.38437028  3252
KUIPER-00622            
1 69779U 26151S   26204.58334491  .00032553  00000+0  98207-3 0  9990
2 69779  51.8737 139.9132 0007040 177.1706 205.7787 15.33973914  3946
KUIPER-00623            
1 69780U 26151T   26204.24580369  .00023915  00000+0  64807-3 0  9993
2 69780  51.8775 141.4488 0004756 157.0535 203.0665 15.37515840  3254
KUIPER-00626            
1 69781U 26151U   26204.53293662  .00018964  00000+0  56647-3 0  9994
2 69781  51.8717 140.3592 0009956 192.8924 167.1808 15.34582905  3297
KUIPER-00627            
1 69782U 26151V   26204.53598221  .00020249  00000+0  60685-3 0  9990
2 69782  51.8704 140.3735 0010667 199.9314 160.1256 15.34426788  3291
KUIPER-00629            
1 69783U 26151W   26204.58334491  .00018070  00000+0  77097-3 0  9997
2 69783  51.8826 140.3816 0006131 196.3534 342.8082 15.22954064  3637
KUIPER-00631            
1 69784U 26151X   26204.58334491 -.01192240  00000+0 -53765-1 0  9997
2 69784  51.8795 140.3330 0007887 191.5844 356.9753 15.23318499  1304
KUIPER-00634            
1 69785U 26151Y   26204.24171351  .00027215  00000+0  72662-3 0  9990
2 69785  51.8773 141.4225 0003366 168.8537 191.2525 15.37906810  3258
KUIPER-00639            
1 69786U 26151Z   26204.20421521  .00020374  00000+0  60762-3 0  9991
2 69786  51.8687 141.9041 0009800 187.8748 172.2085 15.34586559  3248
KUIPER-00641            
1 69787U 26151AA  26204.53832077  .00019149  00000+0  58292-3 0  9993
2 69787  51.8680 140.3876 0010905 195.6690 164.3959 15.33967397  3291
KUIPER-00644            
1 69788U 26151AB  26204.51851844  .00021875  00000+0  61314-3 0  9993
2 69788  51.8732 140.2698 0007759 190.2588 169.8241 15.36505117  3285
KUIPER-00646            
1 69789U 26151AC  26204.52659642 -.00012059  00000+0 -33647-3 0  9991
2 69789  51.8697 140.3173 0009560 191.0758 169.0018 15.35198818  3295
KUIPER-00647            
1 69790U 26151AD  26204.53361307 -.00069655  00000+0 -20642-2 0  9996
2 69790  51.8672 140.3555 0011254 194.4538 165.6127 15.34376502  3290
KUIPER-00662            
1 69791U 26151AE  26204.58334491 -.01814946  00000+0 -75955-1 0  9994
2 69791  51.8790 140.2883 0007963 181.9378 350.9783 15.26616008  2318
LINK                    
1 69792U 26152A   26202.48382856  .00104063  00000+0  87541-3 0  9996
2 69792  20.5930 278.9369 0023518  85.5169 274.7964 15.67728585  2848
ISS OBJECT YJ           
1 69794U 98067YJ  26204.04396693  .00039447  00000+0  68495-3 0  9990
2 69794  51.6312 122.5055 0007661 337.9458  22.1200 15.50414828  3215
ISS OBJECT YK           
1 69795U 98067YK  26204.48702074  .00064407  00000+0  10703-2 0  9995
2 69795  51.6313 120.2158 0006246 345.0810  14.9994 15.51445279  3287
ISS OBJECT YL           
1 69796U 98067YL  26204.03860149  .00053398  00000+0  90359-3 0  9998
2 69796  51.6318 122.4700 0008467 338.6492  21.4143 15.50999758  3207
ISS OBJECT YM           
1 69797U 98067YM  26201.07401881  .00050643  00000+0  86101-3 0  9994
2 69797  51.6311 137.1739 0009481 319.6197  40.4088 15.50880460  2739
ISS OBJECT YN           
1 69798U 98067YN  26203.00906778  .00033070  00000+0  57202-3 0  9990
2 69798  51.6321 127.5954 0009085 339.1650  20.8968 15.50596645  3058
PROVES-ELECTRA          
1 69799U 98067YP  26204.48911896  .00067943  00000+0  11411-2 0  9998
2 69799  51.6332 120.2282 0009396 332.3527  27.6961 15.51097583  3278
QIANFAN-201             
1 69800U 26153A   26204.60638672  .00000309  00000+0  13297-3 0  9998
2 69800  88.9931 358.0796 0008713 150.9563 209.2115 14.22096314  2744
QIANFAN-202             
1 69801U 26153B   26204.57467267  .00000193  00000+0  86101-4 0  9991
2 69801  88.9931 358.0936 0007681 150.5997 209.5626 14.18845547  2735
QIANFAN-203             
1 69802U 26153C   26204.56378097  .00000150  00000+0  64477-4 0  9998
2 69802  88.9931 358.0919 0008244 152.4541 207.7087 14.19389919  2737
