OBJECT_NAME,OBJECT_ID,EPOCH,MEAN_MOTION,ECCENTRICITY,INCLINATION,RA_OF_ASC_NODE,ARG_OF_PERICENTER,MEAN_ANOMALY,EPHEMERIS_TYPE,CLASSIFICATION_TYPE,NORAD_CAT_ID,ELEMENT_SET_NO,REV_AT_EPOCH,BSTAR,MEAN_MOTION_DOT,MEAN_MOTION_DDOT
KUIPER-00614,2026-151L,2026-07-23T00:59:34.561536,15.38242293,.00032226,51.8797,142.3282,153.6537,206.4614,0,U,69773,999,322,.7671614E-3,.29081E-3,0
KUIPER-00615,2026-151M,2026-07-23T14:00:01.000224,15.34336301,.00065336,51.8780,139.8993,179.4455,215.6611,0,U,69774,999,214,.18679112E-3,.5932E-4,0
KUIPER-00616,2026-151N,2026-07-23T02:29:37.663296,15.38499856,.0003438,51.8781,142.0022,159.7088,200.4037,0,U,69775,999,323,.8924555E-3,.34208E-3,0
KUIPER-00617,2026-151P,2026-07-23T05:47:01.646592,15.37911621,.00040947,51.8793,141.4165,169.5227,190.5846,0,U,69776,999,325,.57688066E-3,.21514E-3,0
KUIPER-00619,2026-151Q,2026-07-23T05:32:18.540096,15.38714521,.00013515,51.8817,141.3479,78.4198,281.6941,0,U,69777,999,325,.72437398E-3,.2786E-3,0
KUIPER-00621,2026-151R,2026-07-23T05:37:00.115104,15.38437028,.0001759,51.8794,141.3750,129.0977,231.0167,0,U,69778,999,325,.7577072E-3,.289E-3,0
KUIPER-00622,2026-151S,2026-07-23T14:00:01.000224,15.33973914,.00070408,51.8737,139.9132,177.1706,205.7787,0,U,69779,999,394,.98206536E-3,.32553E-3,0
KUIPER-00623,2026-151T,2026-07-23T05:53:57.438816,15.37515840,.00047566,51.8775,141.4488,157.0535,203.0665,0,U,69780,999,325,.64807321E-3,.23915E-3,0
KUIPER-00626,2026-151U,2026-07-23T12:47:25.723968,15.34582905,.00099567,51.8717,140.3592,192.8924,167.1808,0,U,69781,999,329,.5664693E-3,.18964E-3,0
KUIPER-00627,2026-151V,2026-07-23T12:51:48.862944,15.34426788,.00106678,51.8704,140.3735,199.9314,160.1256,0,U,69782,999,329,.60684971E-3,.20249E-3,0
KUIPER-00629,2026-151W,2026-07-23T14:00:01.000224,15.22954064,.00061319,51.8826,140.3816,196.3534,342.8082,0,U,69783,999,363,.77097212E-3,.1807E-3,0
KUIPER-00631,2026-151X,2026-07-23T14:00:01.000224,15.23318499,.0007887,51.8795,140.3330,191.5844,356.9753,0,U,69784,999,130,-.53765106E-1,-.119224E-1,0
KUIPER-00634,2026-151Y,2026-07-23T05:48:04.047264,15.37906810,.00033663,51.8773,141.4225,168.8537,191.2525,0,U,69785,999,325,.72662143E-3,.27215E-3,0
KUIPER-00639,2026-151Z,2026-07-23T04:54:04.194144,15.34586559,.00098008,51.8687,141.9041,187.8748,172.2085,0,U,69786,999,324,.60761506E-3,.20374E-3,0
KUIPER-00641,2026-151AA,2026-07-23T12:55:10.914528,15.33967397,.00109059,51.8680,140.3876,195.6690,164.3959,0,U,69787,999,329,.58292329E-3,.19149E-3,0
KUIPER-00644,2026-151AB,2026-07-23T12:26:39.993216,15.36505117,.00077593,51.8732,140.2698,190.2588,169.8241,0,U,69788,999,328,.61314448E-3,.21875E-3,0
KUIPER-00646,2026-151AC,2026-07-23T12:38:17.930688,15.35198818,.00095601,51.8697,140.3173,191.0758,169.0018,0,U,69789,999,329,-.33646782E-3,-.12059E-3,0
KUIPER-00647,2026-151AD,2026-07-23T12:48:24.169248,15.34376502,.00112546,51.8672,140.3555,194.4538,165.6127,0,U,69790,999,329,-.20641579E-2,-.69655E-3,0
KUIPER-00662,2026-151AE,2026-07-23T14:00:01.000224,15.26616008,.00079634,51.8790,140.2883,181.9378,350.9783,0,U,69791,999,231,-.75955323E-1,-.1814946E-1,0
LINK,2026-152A,2026-07-21T11:36:42.787584,15.67728585,.00235185,20.5930,278.9369,85.5169,274.7964,0,U,69792,999,284,.87541489E-3,.104063E-2,0
ISS OBJECT YJ,1998-067YJ,2026-07-23T01:03:18.742752,15.50414828,.00076611,51.6312,122.5055,337.9458,22.1200,0,U,69794,999,321,.68494593E-3,.39447E-3,0
ISS OBJECT YK,1998-067YK,2026-07-23T11:41:18.591936,15.51445279,.00062464,51.6313,120.2158,345.0810,14.9994,0,U,69795,999,328,.1070317E-2,.64407E-3,0
ISS OBJECT YL,1998-067YL,2026-07-23T00:55:35.168736,15.50999758,.00084673,51.6318,122.4700,338.6492,21.4143,0,U,69796,999,320,.90359449E-3,.53398E-3,0
ISS OBJECT YM,1998-067YM,2026-07-20T01:46:35.225184,15.50880460,.0009481,51.6311,137.1739,319.6197,40.4088,0,U,69797,999,273,.86101476E-3,.50643E-3,0
ISS OBJECT YN,1998-067YN,2026-07-22T00:13:03.456192,15.50596645,.00090855,51.6321,127.5954,339.1650,20.8968,0,U,69798,999,305,.57201763E-3,.3307E-3,0
PROVES-ELECTRA,1998-067YP,2026-07-23T11:44:19.878144,15.51097583,.0009396,51.6332,120.2282,332.3527,27.6961,0,U,69799,999,327,.11411435E-2,.67943E-3,0
QIANFAN-201,2026-153A,2026-07-23T14:33:11.812608,14.22096314,.00087136,88.9931,358.0796,150.9563,209.2115,0,U,69800,999,274,.13296852E-3,.309E-5,0
QIANFAN-202,2026-153B,2026-07-23T13:47:31.718688,14.18845547,.00076815,88.9931,358.0936,150.5997,209.5626,0,U,69801,999,273,.86100769E-4,.193E-5,0
QIANFAN-203,2026-153C,2026-07-23T13:31:50.675808,14.19389919,.00082449,88.9931,358.0919,152.4541,207.7087,0,U,69802,999,273,.64476644E-4,.15E-5,0
